<?xml version='1.0' encoding='utf-8'?>
<kml xmlns="http://www.opengis.net/kml/2.2">
  <Document>
    <Placemark>
      <name>Circuit de Barcelona-Catalunya</name>
      <description>Salida del circuito</description>
      <Point>
        <coordinates>2.261223741459883,41.57002141925227,0.0</coordinates>
        <altitudeMode>relativeToGround</altitudeMode>
      </Point>
    </Placemark>
    <name>Ruta Circuito</name>
    <Placemark>
      <LineString>
        <extrude>1</extrude>
        <tessellation>1</tessellation>
        <coordinates>2.261223741459883,41.57002141925227,0.0
2.256836845695231,41.56479577282675,0.0
2.256555135458453,41.56464401810346,0.0
2.256283705296787,41.56464297862309,0.0
2.255981003327416,41.56478007673316,0.0
2.255621029447552,41.56488704201879,0.0
2.25526996840038,41.56486535663297,0.0
2.25421452950278,41.56431477935144,0.0
2.253423008865068,41.56419187871545,0.0
2.252800734195874,41.56435866648417,0.0
2.252382679092739,41.56472015836391,0.0
2.252185047758342,41.56521056474557,0.0
2.252210379611497,41.56572300668989,0.0
2.252432656683965,41.56626349153305,0.0
2.254052957608916,41.56823327576612,0.0
2.254456647162422,41.56842453329151,0.0
2.254921724468089,41.56837320802159,0.0
2.25534456250833,41.56802885885098,0.0
2.255411398774871,41.56763514363966,0.0
2.255237627835973,41.56718721556636,0.0
2.254067309444556,41.5657966452424,0.0
2.25401476225082,41.56554047440624,0.0
2.254224178628839,41.56534376872818,0.0
2.254567146950721,41.56531963224504,0.0
2.256276946694908,41.56590780830554,0.0
2.256866514191072,41.56625388015601,0.0
2.257776460847036,41.56725112853979,0.0
2.257787239497149,41.5674987157371,0.0
2.257588380907813,41.56769439273356,0.0
2.257288505811199,41.56783709394465,0.0
2.257051393238783,41.56800682062143,0.0
2.25687891193818,41.56824167379036,0.0
2.256068451350339,41.56968958000203,0.0
2.255999852451698,41.56995101661871,0.0
2.256052856299189,41.57022312806416,0.0
2.256264024990462,41.57049798065461,0.0
2.256510721691749,41.57065635596593,0.0
2.261813966108299,41.57269646479237,0.0
2.26200305691691,41.57285906429171,0.0
2.261972580546223,41.57307765414816,0.0
2.261772306345919,41.57322137918769,0.0
2.261146204599291,41.57338757752731,0.0
2.260489805837986,41.57326910064344,0.0
2.259983970652788,41.5729741216327,0.0
2.25968571621556,41.57288273528874,0.0
2.259307223705687,41.5729200641769,0.0
2.25899367250892,41.57311532439665,0.0
2.258881269210491,41.57341422830783,0.0
2.259018601852889,41.57370107997465,0.0
2.260438242388416,41.57459133498892,0.0
2.260575173006141,41.57466252297959,0.0
2.260704672856384,41.57467725174846,0.0
2.260814911506173,41.57462827262867,0.0
2.261875436384448,41.57403430242055,0.0
2.261983748249545,41.57401655554651,0.0
2.262062345926112,41.57405287545812,0.0
2.262264569627337,41.57421682616686,0.0
2.262355650954657,41.57427175367519,0.0
2.262527504116378,41.57420317443113,0.0
2.263337955284175,41.57379333761619,0.0
2.263590930291197,41.57353555248284,0.0
2.263695436084776,41.57326714034954,0.0
2.263656568976604,41.5729875004881,0.0
2.263492241529734,41.57272425366525,0.0
2.261223741459883,41.57002141925227,0.0</coordinates>
        <altitudeMode>relativeToGround</altitudeMode>
      </LineString>
      <Style>
        <LineStyle>
          <color>#ff0000ff</color>
          <width>5</width>
        </LineStyle>
      </Style>
    </Placemark>
  </Document>
</kml>